ELYSIUM STAR 2 & LFF    
1 43760U 18099C   24184.75503017  .00040024  00000+0  14893-2 0  9990
2 43760  97.5163 252.4569 0006970 203.7218 156.3700 15.27361256305616
